{
  "type": "FeatureCollection",
  "features": [
    {
      "type": "Feature",
      "properties": {
        "norad_id": 37238,
        "name": "INTELSAT 17 (IS-17)",
        "group": "intelsat",
        "lat": 0.002223308654539711,
        "lon": 48.486556571998555,
        "alt_km": 35791.464240764704,
        "timestamp": "2025-12-21T16:47:54.396665+00:00",
        "meta_object_name": "INTELSAT 17 (IS-17)",
        "meta_object_id": "2010-065B",
        "meta_epoch": "2025-12-21T10:05:17.243808",
        "meta_mean_motion": 1.0027158,
        "meta_eccentricity": 0.0002833,
        "meta_inclination": 0.0322,
        "meta_ra_of_asc_node": 71.525,
        "meta_arg_of_pericenter": 220.7239,
        "meta_mean_anomaly": 15.2864,
        "meta_ephemeris_type": 0,
        "meta_classification_type": "U",
        "meta_norad_cat_id": 37238,
        "meta_element_set_no": 999,
        "meta_rev_at_epoch": 5146,
        "meta_bstar": 0,
        "meta_mean_motion_dot": 0,
        "meta_mean_motion_ddot": 0,
        "tle_line1": "1 37238U 10065B   25355.42033847  .00000000  00000+0  00000+0 0  9994",
        "tle_line2": "2 37238   0.0322  71.5250 0002833 220.7239  15.2864  1.00271580 51469"
      },
      "geometry": {
        "type": "Point",
        "coordinates": [
          48.486556571998555,
          0.002223308654539711
        ]
      }
    },
    {
      "type": "Feature",
      "properties": {
        "norad_id": 37392,
        "name": "INTELSAT 28 (IS-28)",
        "group": "intelsat",
        "lat": -0.987356139954842,
        "lon": -49.19996938569282,
        "alt_km": 35774.293862862665,
        "timestamp": "2025-12-21T16:47:54.396677+00:00",
        "meta_object_name": "INTELSAT 28 (IS-28)",
        "meta_object_id": "2011-016A",
        "meta_epoch": "2025-12-21T11:20:05.957088",
        "meta_mean_motion": 1.00269544,
        "meta_eccentricity": 0.0003703,
        "meta_inclination": 1.3458,
        "meta_ra_of_asc_node": 84.9616,
        "meta_arg_of_pericenter": 189.051,
        "meta_mean_anomaly": 314.6013,
        "meta_ephemeris_type": 0,
        "meta_classification_type": "U",
        "meta_norad_cat_id": 37392,
        "meta_element_set_no": 999,
        "meta_rev_at_epoch": 5150,
        "meta_bstar": 0,
        "meta_mean_motion_dot": -2.03e-06,
        "meta_mean_motion_ddot": 0,
        "tle_line1": "1 37392U 11016A   25355.47229117 -.00000203  00000+0  00000+0 0  9990",
        "tle_line2": "2 37392   1.3458  84.9616 0003703 189.0510 314.6013  1.00269544 51508"
      },
      "geometry": {
        "type": "Point",
        "coordinates": [
          -49.19996938569282,
          -0.987356139954842
        ]
      }
    },
    {
      "type": "Feature",
      "properties": {
        "norad_id": 37834,
        "name": "INTELSAT 18 (IS-18)",
        "group": "intelsat",
        "lat": -0.01607743872087291,
        "lon": 162.47093901101817,
        "alt_km": 35790.323902428216,
        "timestamp": "2025-12-21T16:47:54.396689+00:00",
        "meta_object_name": "INTELSAT 18 (IS-18)",
        "meta_object_id": "2011-056A",
        "meta_epoch": "2025-12-21T08:06:38.568096",
        "meta_mean_motion": 1.00272475,
        "meta_eccentricity": 0.0001716,
        "meta_inclination": 0.0314,
        "meta_ra_of_asc_node": 281.2642,
        "meta_arg_of_pericenter": 9.2626,
        "meta_mean_anomaly": 101.2942,
        "meta_ephemeris_type": 0,
        "meta_classification_type": "U",
        "meta_norad_cat_id": 37834,
        "meta_element_set_no": 999,
        "meta_rev_at_epoch": 5202,
        "meta_bstar": 0,
        "meta_mean_motion_dot": 7.6e-07,
        "meta_mean_motion_ddot": 0,
        "tle_line1": "1 37834U 11056A   25355.33794639  .00000076  00000+0  00000+0 0  9993",
        "tle_line2": "2 37834   0.0314 281.2642 0001716   9.2626 101.2942  1.00272475 52026"
      },
      "geometry": {
        "type": "Point",
        "coordinates": [
          162.47093901101817,
          -0.01607743872087291
        ]
      }
    },
    {
      "type": "Feature",
      "properties": {
        "norad_id": 38098,
        "name": "INTELSAT 22 (IS-22)",
        "group": "intelsat",
        "lat": 0.017581972156741402,
        "lon": 54.58726519003676,
        "alt_km": 35791.97374971888,
        "timestamp": "2025-12-21T16:47:54.396701+00:00",
        "meta_object_name": "INTELSAT 22 (IS-22)",
        "meta_object_id": "2012-011A",
        "meta_epoch": "2025-12-21T08:24:19.414080",
        "meta_mean_motion": 1.00270608,
        "meta_eccentricity": 0.0001803,
        "meta_inclination": 0.016,
        "meta_ra_of_asc_node": 43.4042,
        "meta_arg_of_pericenter": 234.4784,
        "meta_mean_anomaly": 10.4596,
        "meta_ephemeris_type": 0,
        "meta_classification_type": "U",
        "meta_norad_cat_id": 38098,
        "meta_element_set_no": 999,
        "meta_rev_at_epoch": 540,
        "meta_bstar": 0,
        "meta_mean_motion_dot": -3.6e-07,
        "meta_mean_motion_ddot": 0,
        "tle_line1": "1 38098U 12011A   25355.35022470 -.00000036  00000+0  00000+0 0  9994",
        "tle_line2": "2 38098   0.0160  43.4042 0001803 234.4784  10.4596  1.00270608  5406"
      },
      "geometry": {
        "type": "Point",
        "coordinates": [
          54.58726519003676,
          0.017581972156741402
        ]
      }
    },
    {
      "type": "Feature",
      "properties": {
        "norad_id": 38356,
        "name": "INTELSAT 19 (IS-19)",
        "group": "intelsat",
        "lat": 0.02579238141403026,
        "lon": 148.4545546279516,
        "alt_km": 35791.83643787042,
        "timestamp": "2025-12-21T16:47:54.396712+00:00",
        "meta_object_name": "INTELSAT 19 (IS-19)",
        "meta_object_id": "2012-030A",
        "meta_epoch": "2025-12-21T10:33:44.519040",
        "meta_mean_motion": 1.00271325,
        "meta_eccentricity": 0.000275,
        "meta_inclination": 0.0104,
        "meta_ra_of_asc_node": 26.3516,
        "meta_arg_of_pericenter": 240.9584,
        "meta_mean_anomaly": 147.3836,
        "meta_ephemeris_type": 0,
        "meta_classification_type": "U",
        "meta_norad_cat_id": 38356,
        "meta_element_set_no": 999,
        "meta_rev_at_epoch": 4866,
        "meta_bstar": 0,
        "meta_mean_motion_dot": -3.4e-07,
        "meta_mean_motion_ddot": 0,
        "tle_line1": "1 38356U 12030A   25355.44009860 -.00000034  00000+0  00000+0 0  9998",
        "tle_line2": "2 38356   0.0104  26.3516 0002750 240.9584 147.3836  1.00271325 48668"
      },
      "geometry": {
        "type": "Point",
        "coordinates": [
          148.4545546279516,
          0.02579238141403026
        ]
      }
    },
    {
      "type": "Feature",
      "properties": {
        "norad_id": 38740,
        "name": "INTELSAT 20 (IS-20)",
        "group": "intelsat",
        "lat": 0.010285845276948294,
        "lon": 50.94117163201437,
        "alt_km": 35795.87848922619,
        "timestamp": "2025-12-21T16:47:54.396724+00:00",
        "meta_object_name": "INTELSAT 20 (IS-20)",
        "meta_object_id": "2012-043A",
        "meta_epoch": "2025-12-21T11:48:40.718880",
        "meta_mean_motion": 1.00271315,
        "meta_eccentricity": 0.0003473,
        "meta_inclination": 0.0082,
        "meta_ra_of_asc_node": 53.6994,
        "meta_arg_of_pericenter": 128.8194,
        "meta_mean_anomaly": 153.4487,
        "meta_ephemeris_type": 0,
        "meta_classification_type": "U",
        "meta_norad_cat_id": 38740,
        "meta_element_set_no": 999,
        "meta_rev_at_epoch": 4896,
        "meta_bstar": 0,
        "meta_mean_motion_dot": -2e-08,
        "meta_mean_motion_ddot": 0,
        "tle_line1": "1 38740U 12043A   25355.49213795 -.00000002  00000+0  00000+0 0  9993",
        "tle_line2": "2 38740   0.0082  53.6994 0003473 128.8194 153.4487  1.00271315 48969"
      },
      "geometry": {
        "type": "Point",
        "coordinates": [
          50.94117163201437,
          0.010285845276948294
        ]
      }
    },
    {
      "type": "Feature",
      "properties": {
        "norad_id": 38749,
        "name": "INTELSAT 21 (IS-21)",
        "group": "intelsat",
        "lat": -0.0200965066264048,
        "lon": -75.50726298656217,
        "alt_km": 35780.12483952633,
        "timestamp": "2025-12-21T16:47:54.396736+00:00",
        "meta_object_name": "INTELSAT 21 (IS-21)",
        "meta_object_id": "2012-045A",
        "meta_epoch": "2025-12-21T11:12:36.672768",
        "meta_mean_motion": 1.0027192,
        "meta_eccentricity": 0.0001525,
        "meta_inclination": 0.0228,
        "meta_ra_of_asc_node": 292.4325,
        "meta_arg_of_pericenter": 329.0019,
        "meta_mean_anomaly": 299.0063,
        "meta_ephemeris_type": 0,
        "meta_classification_type": "U",
        "meta_norad_cat_id": 38749,
        "meta_element_set_no": 999,
        "meta_rev_at_epoch": 4874,
        "meta_bstar": 0,
        "meta_mean_motion_dot": -2.62e-06,
        "meta_mean_motion_ddot": 0,
        "tle_line1": "1 38749U 12045A   25355.46709112 -.00000262  00000+0  00000+0 0  9992",
        "tle_line2": "2 38749   0.0228 292.4325 0001525 329.0019 299.0063  1.00271920 48743"
      },
      "geometry": {
        "type": "Point",
        "coordinates": [
          -75.50726298656217,
          -0.0200965066264048
        ]
      }
    }
  ]
}